[{"OBJECT_NAME":"HULIANWANG DIGUI-166","OBJECT_ID":"2026-076C","EPOCH":"2026-04-24T08:57:59.186016","MEAN_MOTION":13.75290951,"ECCENTRICITY":0.0001697,"INCLINATION":86.492,"RA_OF_ASC_NODE":62.6107,"ARG_OF_PERICENTER":91.4568,"MEAN_ANOMALY":268.6789,"EPHEMERIS_TYPE":0,"CLASSIFICATION_TYPE":"U","NORAD_CAT_ID":68658,"ELEMENT_SET_NO":999,"REV_AT_EPOCH":215,"BSTAR":-0.00054375,"MEAN_MOTION_DOT":-5.04e-6,"MEAN_MOTION_DDOT":0},{"OBJECT_NAME":"HULIANWANG DIGUI-167","OBJECT_ID":"2026-076D","EPOCH":"2026-04-24T08:53:05.140032","MEAN_MOTION":13.75306652,"ECCENTRICITY":0.0001373,"INCLINATION":86.4974,"RA_OF_ASC_NODE":62.6251,"ARG_OF_PERICENTER":103.4929,"MEAN_ANOMALY":256.6387,"EPHEMERIS_TYPE":0,"CLASSIFICATION_TYPE":"U","NORAD_CAT_ID":68659,"ELEMENT_SET_NO":999,"REV_AT_EPOCH":215,"BSTAR":-7.0278e-5,"MEAN_MOTION_DOT":-5.1e-7,"MEAN_MOTION_DDOT":0},{"OBJECT_NAME":"HULIANWANG DIGUI-168","OBJECT_ID":"2026-076E","EPOCH":"2026-04-24T08:48:15.776064","MEAN_MOTION":13.75516097,"ECCENTRICITY":0.0001526,"INCLINATION":86.4955,"RA_OF_ASC_NODE":62.6173,"ARG_OF_PERICENTER":95.8733,"MEAN_ANOMALY":264.2604,"EPHEMERIS_TYPE":0,"CLASSIFICATION_TYPE":"U","NORAD_CAT_ID":68660,"ELEMENT_SET_NO":999,"REV_AT_EPOCH":214,"BSTAR":-0.0006662,"MEAN_MOTION_DOT":-6.24e-6,"MEAN_MOTION_DDOT":0},{"OBJECT_NAME":"CZ-6A R/B","OBJECT_ID":"2026-076F","EPOCH":"2026-04-24T20:10:16.259808","MEAN_MOTION":14.09391863,"ECCENTRICITY":0.0106812,"INCLINATION":86.5078,"RA_OF_ASC_NODE":62.1779,"ARG_OF_PERICENTER":61.4677,"MEAN_ANOMALY":299.7208,"EPHEMERIS_TYPE":0,"CLASSIFICATION_TYPE":"U","NORAD_CAT_ID":68661,"ELEMENT_SET_NO":999,"REV_AT_EPOCH":226,"BSTAR":-2.5448e-5,"MEAN_MOTION_DOT":-2.7e-7,"MEAN_MOTION_DDOT":0},{"OBJECT_NAME":"STARLINK-37195","OBJECT_ID":"2026-077A","EPOCH":"2026-04-24T12:28:31.336896","MEAN_MOTION":15.75242835,"ECCENTRICITY":0.0001144,"INCLINATION":97.2849,"RA_OF_ASC_NODE":345.6557,"ARG_OF_PERICENTER":71.7391,"MEAN_ANOMALY":288.3999,"EPHEMERIS_TYPE":0,"CLASSIFICATION_TYPE":"U","NORAD_CAT_ID":68662,"ELEMENT_SET_NO":999,"REV_AT_EPOCH":212,"BSTAR":0.0012886,"MEAN_MOTION_DOT":0.00197014,"MEAN_MOTION_DDOT":0},{"OBJECT_NAME":"STARLINK-37222","OBJECT_ID":"2026-077B","EPOCH":"2026-04-24T09:24:03.919392","MEAN_MOTION":15.75245957,"ECCENTRICITY":6.25e-5,"INCLINATION":97.2857,"RA_OF_ASC_NODE":345.5232,"ARG_OF_PERICENTER":102.1078,"MEAN_ANOMALY":258.0257,"EPHEMERIS_TYPE":0,"CLASSIFICATION_TYPE":"U","NORAD_CAT_ID":68663,"ELEMENT_SET_NO":999,"REV_AT_EPOCH":210,"BSTAR":0.0014289,"MEAN_MOTION_DOT":0.00219084,"MEAN_MOTION_DDOT":0},{"OBJECT_NAME":"STARLINK-37153","OBJECT_ID":"2026-077C","EPOCH":"2026-04-24T09:25:03.194976","MEAN_MOTION":15.75226363,"ECCENTRICITY":0.0001185,"INCLINATION":97.2851,"RA_OF_ASC_NODE":345.522,"ARG_OF_PERICENTER":119.73,"MEAN_ANOMALY":240.4084,"EPHEMERIS_TYPE":0,"CLASSIFICATION_TYPE":"U","NORAD_CAT_ID":68664,"ELEMENT_SET_NO":999,"REV_AT_EPOCH":210,"BSTAR":0.001248,"MEAN_MOTION_DOT":0.00190528,"MEAN_MOTION_DDOT":0},{"OBJECT_NAME":"STARLINK-37171","OBJECT_ID":"2026-077D","EPOCH":"2026-04-24T09:22:00.155712","MEAN_MOTION":15.7522489,"ECCENTRICITY":0.0001114,"INCLINATION":97.2859,"RA_OF_ASC_NODE":345.5243,"ARG_OF_PERICENTER":87.7459,"MEAN_ANOMALY":272.3934,"EPHEMERIS_TYPE":0,"CLASSIFICATION_TYPE":"U","NORAD_CAT_ID":68665,"ELEMENT_SET_NO":999,"REV_AT_EPOCH":210,"BSTAR":0.00094273,"MEAN_MOTION_DOT":0.00143078,"MEAN_MOTION_DDOT":0},{"OBJECT_NAME":"STARLINK-37109","OBJECT_ID":"2026-077E","EPOCH":"2026-04-24T09:21:29.685888","MEAN_MOTION":15.75219516,"ECCENTRICITY":0.000109,"INCLINATION":97.2859,"RA_OF_ASC_NODE":345.5248,"ARG_OF_PERICENTER":66.5092,"MEAN_ANOMALY":293.6287,"EPHEMERIS_TYPE":0,"CLASSIFICATION_TYPE":"U","NORAD_CAT_ID":68666,"ELEMENT_SET_NO":999,"REV_AT_EPOCH":210,"BSTAR":0.00086216,"MEAN_MOTION_DOT":0.00130617,"MEAN_MOTION_DDOT":0},{"OBJECT_NAME":"STARLINK-36295","OBJECT_ID":"2026-077F","EPOCH":"2026-04-24T12:23:26.369088","MEAN_MOTION":15.75226385,"ECCENTRICITY":0.0001164,"INCLINATION":97.2852,"RA_OF_ASC_NODE":345.6604,"ARG_OF_PERICENTER":66.2255,"MEAN_ANOMALY":293.9132,"EPHEMERIS_TYPE":0,"CLASSIFICATION_TYPE":"U","NORAD_CAT_ID":68667,"ELEMENT_SET_NO":999,"REV_AT_EPOCH":212,"BSTAR":0.00093269,"MEAN_MOTION_DOT":0.00141537,"MEAN_MOTION_DDOT":0},{"OBJECT_NAME":"STARLINK-37221","OBJECT_ID":"2026-077G","EPOCH":"2026-04-24T13:42:12.825792","MEAN_MOTION":15.75223319,"ECCENTRICITY":0.0001455,"INCLINATION":97.2847,"RA_OF_ASC_NODE":345.7378,"ARG_OF_PERICENTER":93.6158,"MEAN_ANOMALY":266.5274,"EPHEMERIS_TYPE":0,"CLASSIFICATION_TYPE":"U","NORAD_CAT_ID":68668,"ELEMENT_SET_NO":999,"REV_AT_EPOCH":213,"BSTAR":0.00072328,"MEAN_MOTION_DOT":0.00109301,"MEAN_MOTION_DDOT":0},{"OBJECT_NAME":"STARLINK-37302","OBJECT_ID":"2026-077H","EPOCH":"2026-04-24T09:16:24.942720","MEAN_MOTION":15.75209839,"ECCENTRICITY":0.0001424,"INCLINATION":97.286,"RA_OF_ASC_NODE":345.5292,"ARG_OF_PERICENTER":60.0413,"MEAN_ANOMALY":300.0994,"EPHEMERIS_TYPE":0,"CLASSIFICATION_TYPE":"U","NORAD_CAT_ID":68669,"ELEMENT_SET_NO":999,"REV_AT_EPOCH":210,"BSTAR":0.00077677,"MEAN_MOTION_DOT":0.00117437,"MEAN_MOTION_DDOT":0},{"OBJECT_NAME":"STARLINK-37298","OBJECT_ID":"2026-077J","EPOCH":"2026-04-24T15:23:51.393120","MEAN_MOTION":15.75247873,"ECCENTRICITY":0.0002116,"INCLINATION":97.2846,"RA_OF_ASC_NODE":345.7937,"ARG_OF_PERICENTER":94.2303,"MEAN_ANOMALY":265.9204,"EPHEMERIS_TYPE":0,"CLASSIFICATION_TYPE":"U","NORAD_CAT_ID":68670,"ELEMENT_SET_NO":999,"REV_AT_EPOCH":214,"BSTAR":0.0010276,"MEAN_MOTION_DOT":0.00156382,"MEAN_MOTION_DDOT":0},{"OBJECT_NAME":"STARLINK-37224","OBJECT_ID":"2026-077K","EPOCH":"2026-04-24T13:49:50.183328","MEAN_MOTION":15.75235965,"ECCENTRICITY":0.0001582,"INCLINATION":97.2844,"RA_OF_ASC_NODE":345.7306,"ARG_OF_PERICENTER":97.2169,"MEAN_ANOMALY":262.9276,"EPHEMERIS_TYPE":0,"CLASSIFICATION_TYPE":"U","NORAD_CAT_ID":68671,"ELEMENT_SET_NO":999,"REV_AT_EPOCH":213,"BSTAR":0.00090068,"MEAN_MOTION_DOT":0.00136655,"MEAN_MOTION_DDOT":0},{"OBJECT_NAME":"STARLINK-37296","OBJECT_ID":"2026-077L","EPOCH":"2026-04-24T15:20:48.352128","MEAN_MOTION":15.75248036,"ECCENTRICITY":0.0002169,"INCLINATION":97.285,"RA_OF_ASC_NODE":345.7971,"ARG_OF_PERICENTER":100.3922,"MEAN_ANOMALY":259.7587,"EPHEMERIS_TYPE":0,"CLASSIFICATION_TYPE":"U","NORAD_CAT_ID":68672,"ELEMENT_SET_NO":999,"REV_AT_EPOCH":214,"BSTAR":0.00099887,"MEAN_MOTION_DOT":0.00151926,"MEAN_MOTION_DDOT":0},{"OBJECT_NAME":"STARLINK-37316","OBJECT_ID":"2026-077M","EPOCH":"2026-04-24T03:07:57.537984","MEAN_MOTION":15.75325457,"ECCENTRICITY":0.0001183,"INCLINATION":97.2847,"RA_OF_ASC_NODE":345.2652,"ARG_OF_PERICENTER":59.4023,"MEAN_ANOMALY":300.7359,"EPHEMERIS_TYPE":0,"CLASSIFICATION_TYPE":"U","NORAD_CAT_ID":68673,"ELEMENT_SET_NO":999,"REV_AT_EPOCH":206,"BSTAR":0.0020027,"MEAN_MOTION_DOT":0.0031157,"MEAN_MOTION_DDOT":0}]
